[{"OBJECT_NAME":"STARLINK-34093","OBJECT_ID":"2025-101X","EPOCH":"2025-07-28T09:20:47.866560","MEAN_MOTION":15.27585655,"ECCENTRICITY":0.0001504,"INCLINATION":43.0026,"RA_OF_ASC_NODE":184.4901,"ARG_OF_PERICENTER":266.3087,"MEAN_ANOMALY":93.7593,"EPHEMERIS_TYPE":0,"CLASSIFICATION_TYPE":"U","NORAD_CAT_ID":64015,"ELEMENT_SET_NO":999,"REV_AT_EPOCH":1277,"BSTAR":0.00057606,"MEAN_MOTION_DOT":0.00015626,"MEAN_MOTION_DDOT":0},{"OBJECT_NAME":"STARLINK-34016","OBJECT_ID":"2025-101Y","EPOCH":"2025-07-28T09:13:23.448288","MEAN_MOTION":15.27574975,"ECCENTRICITY":0.0001515,"INCLINATION":43.0012,"RA_OF_ASC_NODE":184.4494,"ARG_OF_PERICENTER":256.0234,"MEAN_ANOMALY":104.0449,"EPHEMERIS_TYPE":0,"CLASSIFICATION_TYPE":"U","NORAD_CAT_ID":64016,"ELEMENT_SET_NO":999,"REV_AT_EPOCH":1269,"BSTAR":0.00031822,"MEAN_MOTION_DOT":8.503e-5,"MEAN_MOTION_DDOT":0},{"OBJECT_NAME":"STARLINK-34161","OBJECT_ID":"2025-101Z","EPOCH":"2025-07-28T00:01:24.252096","MEAN_MOTION":15.27594954,"ECCENTRICITY":0.0001456,"INCLINATION":43.0018,"RA_OF_ASC_NODE":186.7328,"ARG_OF_PERICENTER":253.8131,"MEAN_ANOMALY":106.256,"EPHEMERIS_TYPE":0,"CLASSIFICATION_TYPE":"U","NORAD_CAT_ID":64017,"ELEMENT_SET_NO":999,"REV_AT_EPOCH":1263,"BSTAR":0.00060262,"MEAN_MOTION_DOT":0.00016365,"MEAN_MOTION_DDOT":0},{"OBJECT_NAME":"STARLINK-34162","OBJECT_ID":"2025-101AA","EPOCH":"2025-07-28T05:02:22.839648","MEAN_MOTION":15.27580336,"ECCENTRICITY":0.0001353,"INCLINATION":43.0016,"RA_OF_ASC_NODE":185.7224,"ARG_OF_PERICENTER":263.1648,"MEAN_ANOMALY":96.905,"EPHEMERIS_TYPE":0,"CLASSIFICATION_TYPE":"U","NORAD_CAT_ID":64018,"ELEMENT_SET_NO":999,"REV_AT_EPOCH":1272,"BSTAR":0.00093431,"MEAN_MOTION_DOT":0.00025537,"MEAN_MOTION_DDOT":0},{"OBJECT_NAME":"STARLINK-34155","OBJECT_ID":"2025-101AB","EPOCH":"2025-07-28T05:13:29.102880","MEAN_MOTION":15.27589455,"ECCENTRICITY":0.0001044,"INCLINATION":43.0017,"RA_OF_ASC_NODE":185.7784,"ARG_OF_PERICENTER":265.2573,"MEAN_ANOMALY":94.8159,"EPHEMERIS_TYPE":0,"CLASSIFICATION_TYPE":"U","NORAD_CAT_ID":64019,"ELEMENT_SET_NO":999,"REV_AT_EPOCH":1258,"BSTAR":0.00064388,"MEAN_MOTION_DOT":0.00017503,"MEAN_MOTION_DDOT":0},{"OBJECT_NAME":"STARLINK-34141","OBJECT_ID":"2025-101AC","EPOCH":"2025-07-28T05:07:57.659520","MEAN_MOTION":15.27600207,"ECCENTRICITY":0.0001709,"INCLINATION":43.0029,"RA_OF_ASC_NODE":185.7499,"ARG_OF_PERICENTER":286.9702,"MEAN_ANOMALY":73.0962,"EPHEMERIS_TYPE":0,"CLASSIFICATION_TYPE":"U","NORAD_CAT_ID":64020,"ELEMENT_SET_NO":999,"REV_AT_EPOCH":1272,"BSTAR":0.0010649,"MEAN_MOTION_DOT":0.00029176,"MEAN_MOTION_DDOT":0},{"OBJECT_NAME":"STARLINK-34062","OBJECT_ID":"2025-101AD","EPOCH":"2025-07-28T07:44:47.091264","MEAN_MOTION":15.27589195,"ECCENTRICITY":0.0001097,"INCLINATION":43.0018,"RA_OF_ASC_NODE":184.8472,"ARG_OF_PERICENTER":306.0099,"MEAN_ANOMALY":54.0651,"EPHEMERIS_TYPE":0,"CLASSIFICATION_TYPE":"U","NORAD_CAT_ID":64021,"ELEMENT_SET_NO":999,"REV_AT_EPOCH":1254,"BSTAR":0.00044803,"MEAN_MOTION_DOT":0.0001209,"MEAN_MOTION_DDOT":0},{"OBJECT_NAME":"STARLINK-34051","OBJECT_ID":"2025-102A","EPOCH":"2025-07-27T22:00:01.999584","MEAN_MOTION":14.98357437,"ECCENTRICITY":0.0003803,"INCLINATION":70.0009,"RA_OF_ASC_NODE":321.1869,"ARG_OF_PERICENTER":269.8801,"MEAN_ANOMALY":79.3431,"EPHEMERIS_TYPE":0,"CLASSIFICATION_TYPE":"U","NORAD_CAT_ID":64022,"ELEMENT_SET_NO":999,"REV_AT_EPOCH":1227,"BSTAR":-0.0041663,"MEAN_MOTION_DOT":-0.00049494,"MEAN_MOTION_DDOT":0},{"OBJECT_NAME":"STARLINK-34184","OBJECT_ID":"2025-102B","EPOCH":"2025-07-28T12:51:56.486016","MEAN_MOTION":14.98334063,"ECCENTRICITY":0.0003818,"INCLINATION":70.0011,"RA_OF_ASC_NODE":319.722,"ARG_OF_PERICENTER":268.0214,"MEAN_ANOMALY":92.0508,"EPHEMERIS_TYPE":0,"CLASSIFICATION_TYPE":"U","NORAD_CAT_ID":64023,"ELEMENT_SET_NO":999,"REV_AT_EPOCH":1245,"BSTAR":0.00016031,"MEAN_MOTION_DOT":1.82e-5,"MEAN_MOTION_DDOT":0},{"OBJECT_NAME":"STARLINK-34087","OBJECT_ID":"2025-102C","EPOCH":"2025-07-28T12:03:51.441408","MEAN_MOTION":14.98330106,"ECCENTRICITY":0.0003196,"INCLINATION":70.002,"RA_OF_ASC_NODE":319.6038,"ARG_OF_PERICENTER":269.6701,"MEAN_ANOMALY":90.4092,"EPHEMERIS_TYPE":0,"CLASSIFICATION_TYPE":"U","NORAD_CAT_ID":64024,"ELEMENT_SET_NO":999,"REV_AT_EPOCH":1226,"BSTAR":2.0812e-5,"MEAN_MOTION_DOT":1.55e-6,"MEAN_MOTION_DDOT":0},{"OBJECT_NAME":"STARLINK-34088","OBJECT_ID":"2025-102D","EPOCH":"2025-07-28T06:00:02.000160","MEAN_MOTION":14.98336168,"ECCENTRICITY":0.0004021,"INCLINATION":70.0002,"RA_OF_ASC_NODE":320.4894,"ARG_OF_PERICENTER":278.2421,"MEAN_ANOMALY":293.3672,"EPHEMERIS_TYPE":0,"CLASSIFICATION_TYPE":"U","NORAD_CAT_ID":64025,"ELEMENT_SET_NO":999,"REV_AT_EPOCH":1233,"BSTAR":0.0037426,"MEAN_MOTION_DOT":0.0004486,"MEAN_MOTION_DDOT":0},{"OBJECT_NAME":"STARLINK-33992","OBJECT_ID":"2025-102E","EPOCH":"2025-07-28T13:15:59.664096","MEAN_MOTION":14.98354655,"ECCENTRICITY":0.0003452,"INCLINATION":70.0012,"RA_OF_ASC_NODE":319.7817,"ARG_OF_PERICENTER":272.5132,"MEAN_ANOMALY":87.5631,"EPHEMERIS_TYPE":0,"CLASSIFICATION_TYPE":"U","NORAD_CAT_ID":64026,"ELEMENT_SET_NO":999,"REV_AT_EPOCH":1247,"BSTAR":0.00060162,"MEAN_MOTION_DOT":7.097e-5,"MEAN_MOTION_DDOT":0},{"OBJECT_NAME":"STARLINK-33967","OBJECT_ID":"2025-102F","EPOCH":"2025-07-28T12:27:54.752544","MEAN_MOTION":14.98342822,"ECCENTRICITY":0.0003814,"INCLINATION":70.0011,"RA_OF_ASC_NODE":319.6617,"ARG_OF_PERICENTER":273.3679,"MEAN_ANOMALY":86.7044,"EPHEMERIS_TYPE":0,"CLASSIFICATION_TYPE":"U","NORAD_CAT_ID":64027,"ELEMENT_SET_NO":999,"REV_AT_EPOCH":1231,"BSTAR":0.00080398,"MEAN_MOTION_DOT":9.517e-5,"MEAN_MOTION_DDOT":0},{"OBJECT_NAME":"STARLINK-33953","OBJECT_ID":"2025-102G","EPOCH":"2025-07-28T11:45:49.272768","MEAN_MOTION":14.98334097,"ECCENTRICITY":0.0003447,"INCLINATION":70.0012,"RA_OF_ASC_NODE":319.558,"ARG_OF_PERICENTER":264.1498,"MEAN_ANOMALY":95.9268,"EPHEMERIS_TYPE":0,"CLASSIFICATION_TYPE":"U","NORAD_CAT_ID":64028,"ELEMENT_SET_NO":999,"REV_AT_EPOCH":1253,"BSTAR":0.00010549,"MEAN_MOTION_DOT":1.166e-5,"MEAN_MOTION_DDOT":0},{"OBJECT_NAME":"STARLINK-33790","OBJECT_ID":"2025-102H","EPOCH":"2025-07-28T12:46:10.222464","MEAN_MOTION":14.98337671,"ECCENTRICITY":0.0003339,"INCLINATION":70.0012,"RA_OF_ASC_NODE":319.7013,"ARG_OF_PERICENTER":265.6501,"MEAN_ANOMALY":94.4277,"EPHEMERIS_TYPE":0,"CLASSIFICATION_TYPE":"U","NORAD_CAT_ID":64029,"ELEMENT_SET_NO":999,"REV_AT_EPOCH":1242,"BSTAR":0.00026324,"MEAN_MOTION_DOT":3.05e-5,"MEAN_MOTION_DDOT":0},{"OBJECT_NAME":"STARLINK-34030","OBJECT_ID":"2025-102J","EPOCH":"2025-07-28T13:03:57.756672","MEAN_MOTION":14.98338947,"ECCENTRICITY":0.0003426,"INCLINATION":70.0015,"RA_OF_ASC_NODE":319.752,"ARG_OF_PERICENTER":269.0748,"MEAN_ANOMALY":91.0019,"EPHEMERIS_TYPE":0,"CLASSIFICATION_TYPE":"U","NORAD_CAT_ID":64030,"ELEMENT_SET_NO":999,"REV_AT_EPOCH":1244,"BSTAR":0.00027673,"MEAN_MOTION_DOT":3.211e-5,"MEAN_MOTION_DDOT":0}]
