STARLINK-34093          
1 64015U 25101X   25209.38944290  .00015626  00000+0  57606-3 0  9998
2 64015  43.0026 184.4901 0001504 266.3087  93.7593 15.27585655 12774
STARLINK-34016          
1 64016U 25101Y   25209.38429917  .00008503  00000+0  31822-3 0  9991
2 64016  43.0012 184.4494 0001515 256.0234 104.0449 15.27574975 12699
STARLINK-34161          
1 64017U 25101Z   25209.00097514  .00016365  00000+0  60262-3 0  9990
2 64017  43.0018 186.7328 0001456 253.8131 106.2560 15.27594954 12633
STARLINK-34162          
1 64018U 25101AA  25209.20998657  .00025537  00000+0  93431-3 0  9996
2 64018  43.0016 185.7224 0001353 263.1648  96.9050 15.27580336 12727
STARLINK-34155          
1 64019U 25101AB  25209.21769795  .00017503  00000+0  64388-3 0  9990
2 64019  43.0017 185.7784 0001044 265.2573  94.8159 15.27589455 12589
STARLINK-34141          
1 64020U 25101AC  25209.21386180  .00029176  00000+0  10649-2 0  9994
2 64020  43.0029 185.7499 0001709 286.9702  73.0962 15.27600207 12725
STARLINK-34062          
1 64021U 25101AD  25209.32276726  .00012090  00000+0  44803-3 0  9998
2 64021  43.0018 184.8472 0001097 306.0099  54.0651 15.27589195 12544
STARLINK-34051          
1 64022U 25102A   25208.91668981 -.00049494  00000+0 -41663-2 0  9992
2 64022  70.0009 321.1869 0003803 269.8801  79.3431 14.98357437 12270
STARLINK-34184          
1 64023U 25102B   25209.53607044  .00001820  00000+0  16031-3 0  9996
2 64023  70.0011 319.7220 0003818 268.0214  92.0508 14.98334063 12450
STARLINK-34087          
1 64024U 25102C   25209.50267872  .00000155  00000+0  20812-4 0  9998
2 64024  70.0020 319.6038 0003196 269.6701  90.4092 14.98330106 12267
STARLINK-34088          
1 64025U 25102D   25209.25002315  .00044860  00000+0  37426-2 0  9998
2 64025  70.0002 320.4894 0004021 278.2421 293.3672 14.98336168 12331
STARLINK-33992          
1 64026U 25102E   25209.55277389  .00007097  00000+0  60162-3 0  9992
2 64026  70.0012 319.7817 0003452 272.5132  87.5631 14.98354655 12476
STARLINK-33967          
1 64027U 25102F   25209.51938371  .00009517  00000+0  80398-3 0  9996
2 64027  70.0011 319.6617 0003814 273.3679  86.7044 14.98342822 12315
STARLINK-33953          
1 64028U 25102G   25209.49015362  .00001166  00000+0  10549-3 0  9993
2 64028  70.0012 319.5580 0003447 264.1498  95.9268 14.98334097 12533
STARLINK-33790          
1 64029U 25102H   25209.53206276  .00003050  00000+0  26324-3 0  9997
2 64029  70.0012 319.7013 0003339 265.6501  94.4277 14.98337671 12421
STARLINK-34030          
1 64030U 25102J   25209.54441848  .00003211  00000+0  27673-3 0  9993
2 64030  70.0015 319.7520 0003426 269.0748  91.0019 14.98338947 12443
